{
  "type": "FeatureCollection",
  "features": [
    {
      "type": "Feature",
      "properties": {
        "norad_id": 37477,
        "name": "FENGYUN 1C DEB",
        "group": "fengyun-1c-debris",
        "lat": 52.98955267125627,
        "lon": -163.48714722177164,
        "alt_km": 807.6394647473189,
        "timestamp": "2025-12-26T15:29:39.728622+00:00",
        "meta_object_name": "FENGYUN 1C DEB",
        "meta_object_id": "1999-025EJX",
        "meta_epoch": "2025-12-16T18:06:36.022176",
        "meta_mean_motion": 14.19731482,
        "meta_eccentricity": 0.00371355,
        "meta_inclination": 98.6057,
        "meta_ra_of_asc_node": 355.3103,
        "meta_arg_of_pericenter": 94.8392,
        "meta_mean_anomaly": 265.7026,
        "meta_ephemeris_type": 0,
        "meta_classification_type": "U",
        "meta_norad_cat_id": 37477,
        "meta_element_set_no": 999,
        "meta_rev_at_epoch": 81971,
        "meta_bstar": 0.00055952668,
        "meta_mean_motion_dot": 1.15e-05,
        "meta_mean_motion_ddot": 0,
        "tle_line1": "1 37477U 99025EJX 25350.75458359  .00001150  00000+0  55953-3 0  9990",
        "tle_line2": "2 37477  98.6057 355.3103 0037135  94.8392 265.7026 14.19731482819713"
      },
      "geometry": {
        "type": "Point",
        "coordinates": [
          -163.48714722177164,
          52.98955267125627
        ]
      }
    },
    {
      "type": "Feature",
      "properties": {
        "norad_id": 37478,
        "name": "FENGYUN 1C DEB",
        "group": "fengyun-1c-debris",
        "lat": 16.94611001429454,
        "lon": 164.64576598093714,
        "alt_km": 1471.6117288535388,
        "timestamp": "2025-12-26T15:29:39.728632+00:00",
        "meta_object_name": "FENGYUN 1C DEB",
        "meta_object_id": "1999-025EJY",
        "meta_epoch": "2025-12-23T05:31:28.594848",
        "meta_mean_motion": 13.03020761,
        "meta_eccentricity": 0.05479168,
        "meta_inclination": 99.6522,
        "meta_ra_of_asc_node": 338.6097,
        "meta_arg_of_pericenter": 295.1195,
        "meta_mean_anomaly": 59.4029,
        "meta_ephemeris_type": 0,
        "meta_classification_type": "U",
        "meta_norad_cat_id": 37478,
        "meta_element_set_no": 999,
        "meta_rev_at_epoch": 56698,
        "meta_bstar": 0.0032489988,
        "meta_mean_motion_dot": 2.046e-05,
        "meta_mean_motion_ddot": 0,
        "tle_line1": "1 37478U 99025EJY 25357.23019207  .00002046  00000+0  32490-2 0  9991",
        "tle_line2": "2 37478  99.6522 338.6097 0547916 295.1195  59.4029 13.03020761566980"
      },
      "geometry": {
        "type": "Point",
        "coordinates": [
          164.64576598093714,
          16.94611001429454
        ]
      }
    },
    {
      "type": "Feature",
      "properties": {
        "norad_id": 37589,
        "name": "FENGYUN 1C DEB",
        "group": "fengyun-1c-debris",
        "lat": -39.848481110508814,
        "lon": -89.00681799747045,
        "alt_km": 877.1369895906437,
        "timestamp": "2025-12-26T15:29:39.728643+00:00",
        "meta_object_name": "FENGYUN 1C DEB",
        "meta_object_id": "1999-025EKH",
        "meta_epoch": "2025-12-22T12:47:20.483808",
        "meta_mean_motion": 14.08264276,
        "meta_eccentricity": 0.01172304,
        "meta_inclination": 99.0749,
        "meta_ra_of_asc_node": 259.1917,
        "meta_arg_of_pericenter": 236.7185,
        "meta_mean_anomaly": 122.271,
        "meta_ephemeris_type": 0,
        "meta_classification_type": "U",
        "meta_norad_cat_id": 37589,
        "meta_element_set_no": 999,
        "meta_rev_at_epoch": 82722,
        "meta_bstar": 0.0028934456,
        "meta_mean_motion_dot": 5.223e-05,
        "meta_mean_motion_ddot": 0,
        "tle_line1": "1 37589U 99025EKH 25356.53287597  .00005223  00000+0  28934-2 0  9993",
        "tle_line2": "2 37589  99.0749 259.1917 0117230 236.7185 122.2710 14.08264276827228"
      },
      "geometry": {
        "type": "Point",
        "coordinates": [
          -89.00681799747045,
          -39.848481110508814
        ]
      }
    },
    {
      "type": "Feature",
      "properties": {
        "norad_id": 37594,
        "name": "FENGYUN 1C DEB",
        "group": "fengyun-1c-debris",
        "lat": -57.87463500095668,
        "lon": 43.77141386867436,
        "alt_km": 842.0550597956308,
        "timestamp": "2025-12-26T15:29:39.728653+00:00",
        "meta_object_name": "FENGYUN 1C DEB",
        "meta_object_id": "1999-025EKN",
        "meta_epoch": "2025-12-23T12:53:53.738592",
        "meta_mean_motion": 14.11128547,
        "meta_eccentricity": 0.00852864,
        "meta_inclination": 98.7335,
        "meta_ra_of_asc_node": 26.5783,
        "meta_arg_of_pericenter": 238.8668,
        "meta_mean_anomaly": 120.4117,
        "meta_ephemeris_type": 0,
        "meta_classification_type": "U",
        "meta_norad_cat_id": 37594,
        "meta_element_set_no": 999,
        "meta_rev_at_epoch": 77914,
        "meta_bstar": 0.00023559331,
        "meta_mean_motion_dot": 3.96e-06,
        "meta_mean_motion_ddot": 0,
        "tle_line1": "1 37594U 99025EKN 25357.53742753  .00000396  00000+0  23559-3 0  9995",
        "tle_line2": "2 37594  98.7335  26.5783 0085286 238.8668 120.4117 14.11128547779144"
      },
      "geometry": {
        "type": "Point",
        "coordinates": [
          43.77141386867436,
          -57.87463500095668
        ]
      }
    },
    {
      "type": "Feature",
      "properties": {
        "norad_id": 37595,
        "name": "FENGYUN 1C DEB",
        "group": "fengyun-1c-debris",
        "lat": 18.89310527685588,
        "lon": -151.6471672956305,
        "alt_km": 644.47477708725,
        "timestamp": "2025-12-26T15:29:39.728664+00:00",
        "meta_object_name": "FENGYUN 1C DEB",
        "meta_object_id": "1999-025EKP",
        "meta_epoch": "2025-12-23T19:12:19.083168",
        "meta_mean_motion": 14.71564982,
        "meta_eccentricity": 0.00285537,
        "meta_inclination": 99.0458,
        "meta_ra_of_asc_node": 208.3187,
        "meta_arg_of_pericenter": 332.5627,
        "meta_mean_anomaly": 100.7823,
        "meta_ephemeris_type": 0,
        "meta_classification_type": "U",
        "meta_norad_cat_id": 37595,
        "meta_element_set_no": 999,
        "meta_rev_at_epoch": 62768,
        "meta_bstar": 0.0037494781,
        "meta_mean_motion_dot": 0.00023466,
        "meta_mean_motion_ddot": 0,
        "tle_line1": "1 37595U 99025EKP 25357.80022087  .00023466  00000+0  37495-2 0  9993",
        "tle_line2": "2 37595  99.0458 208.3187 0028553 332.5627 100.7823 14.71564982627683"
      },
      "geometry": {
        "type": "Point",
        "coordinates": [
          -151.6471672956305,
          18.89310527685588
        ]
      }
    },
    {
      "type": "Feature",
      "properties": {
        "norad_id": 37600,
        "name": "FENGYUN 1C DEB",
        "group": "fengyun-1c-debris",
        "lat": 40.11346220332562,
        "lon": -15.71768618475236,
        "alt_km": 1104.1338627861332,
        "timestamp": "2025-12-26T15:29:39.728673+00:00",
        "meta_object_name": "FENGYUN 1C DEB",
        "meta_object_id": "1999-025EKU",
        "meta_epoch": "2025-12-26T04:25:23.698848",
        "meta_mean_motion": 13.82661386,
        "meta_eccentricity": 0.03566694,
        "meta_inclination": 98.9338,
        "meta_ra_of_asc_node": 156.2285,
        "meta_arg_of_pericenter": 13.0428,
        "meta_mean_anomaly": 347.9661,
        "meta_ephemeris_type": 0,
        "meta_classification_type": "U",
        "meta_norad_cat_id": 37600,
        "meta_element_set_no": 999,
        "meta_rev_at_epoch": 88673,
        "meta_bstar": 0.0025662055,
        "meta_mean_motion_dot": 4.504e-05,
        "meta_mean_motion_ddot": 0,
        "tle_line1": "1 37600U 99025EKU 25360.18430207  .00004504  00000+0  25662-2 0  9997",
        "tle_line2": "2 37600  98.9338 156.2285 0356669  13.0428 347.9661 13.82661386886732"
      },
      "geometry": {
        "type": "Point",
        "coordinates": [
          -15.71768618475236,
          40.11346220332562
        ]
      }
    },
    {
      "type": "Feature",
      "properties": {
        "norad_id": 37683,
        "name": "FENGYUN 1C DEB",
        "group": "fengyun-1c-debris",
        "lat": 81.5069116525744,
        "lon": 167.8593351745705,
        "alt_km": 692.1869986718157,
        "timestamp": "2025-12-26T15:29:39.728684+00:00",
        "meta_object_name": "FENGYUN 1C DEB",
        "meta_object_id": "1999-025EKY",
        "meta_epoch": "2025-12-22T12:45:28.700352",
        "meta_mean_motion": 13.31943553,
        "meta_eccentricity": 0.05857029,
        "meta_inclination": 98.0031,
        "meta_ra_of_asc_node": 274.2271,
        "meta_arg_of_pericenter": 100.084,
        "meta_mean_anomaly": 76.0427,
        "meta_ephemeris_type": 0,
        "meta_classification_type": "U",
        "meta_norad_cat_id": 37683,
        "meta_element_set_no": 999,
        "meta_rev_at_epoch": 29370,
        "meta_bstar": 0.0017018804,
        "meta_mean_motion_dot": 2.128e-05,
        "meta_mean_motion_ddot": 0,
        "tle_line1": "1 37683U 99025EKY 25356.53158218  .00002128  00000+0  17019-2 0  9998",
        "tle_line2": "2 37683  98.0031 274.2271 0585702 100.0840  76.0427 13.31943553293709"
      },
      "geometry": {
        "type": "Point",
        "coordinates": [
          167.8593351745705,
          81.5069116525744
        ]
      }
    }
  ]
}